{
    "links": {
        "self": "http://www.neowsapp.com/rest/v1/neo/3412933?api_key=iIulBulltgU6a56xZRHN4H3l9WmuAYTsLGpBGhQ2"
    },
    "id": "3412933",
    "neo_reference_id": "3412933",
    "name": "(2008 KB12)",
    "designation": "2008 KB12",
    "nasa_jpl_url": "http://ssd.jpl.nasa.gov/sbdb.cgi?sstr=3412933",
    "absolute_magnitude_h": 21.5,
    "estimated_diameter": {
        "kilometers": {
            "estimated_diameter_min": 0.1332155667,
            "estimated_diameter_max": 0.2978790628
        },
        "meters": {
            "estimated_diameter_min": 133.2155666981,
            "estimated_diameter_max": 297.8790627982
        },
        "miles": {
            "estimated_diameter_min": 0.0827762899,
            "estimated_diameter_max": 0.1850934111
        },
        "feet": {
            "estimated_diameter_min": 437.0589598459,
            "estimated_diameter_max": 977.2935443908
        }
    },
    "is_potentially_hazardous_asteroid": false,
    "close_approach_data": [
        {
            "close_approach_date": "2008-05-31",
            "close_approach_date_full": "2008-May-31 00:05",
            "epoch_date_close_approach": 1212192300000,
            "relative_velocity": {
                "kilometers_per_second": "15.7216873473",
                "kilometers_per_hour": "56598.0744501155",
                "miles_per_hour": "35167.8424270731"
            },
            "miss_distance": {
                "astronomical": "0.1631263199",
                "lunar": "63.4561384411",
                "kilometers": "24403349.997978613",
                "miles": "15163538.5461183394"
            },
            "orbiting_body": "Earth"
        }
    ],
    "orbital_data": {
        "orbit_id": "10",
        "orbit_determination_date": "2017-04-06 09:03:20",
        "first_observation_date": "2008-05-29",
        "last_observation_date": "2008-06-30",
        "data_arc_in_days": 32,
        "observations_used": 45,
        "orbit_uncertainty": "8",
        "minimum_orbit_intersection": ".162748",
        "jupiter_tisserand_invariant": "2.930",
        "epoch_osculation": "2454624.5",
        "eccentricity": ".5822072694336262",
        "semi_major_axis": "2.786052681358756",
        "inclination": "26.82078480037103",
        "ascending_node_longitude": "73.03550294230804",
        "orbital_period": "1698.565947554779",
        "perihelion_distance": "1.163992557246642",
        "perihelion_argument": "164.1616634595556",
        "aphelion_distance": "4.40811280547087",
        "perihelion_time": "2454604.505940381876",
        "mean_anomaly": "4.237610834531643",
        "mean_motion": ".2119434929908071",
        "equinox": "J2000",
        "orbit_class": {
            "orbit_class_type": "AMO",
            "orbit_class_description": "Near-Earth asteroid orbits similar to that of 1221 Amor",
            "orbit_class_range": "1.017 AU < q (perihelion) < 1.3 AU"
        }
    },
    "is_sentry_object": false
}